[{"OBJECT_NAME":"BANDWAGON-2 OBJECT Y","OBJECT_ID":"2024-247Y","EPOCH":"2026-03-09T10:19:16.593888","MEAN_MOTION":15.4203694,"ECCENTRICITY":0.00084513,"INCLINATION":44.9978,"RA_OF_ASC_NODE":95.1721,"ARG_OF_PERICENTER":2.035,"MEAN_ANOMALY":358.0572,"EPHEMERIS_TYPE":0,"CLASSIFICATION_TYPE":"U","NORAD_CAT_ID":62399,"ELEMENT_SET_NO":999,"REV_AT_EPOCH":6797,"BSTAR":0.00079019986,"MEAN_MOTION_DOT":0.00034304,"MEAN_MOTION_DDOT":0},{"OBJECT_NAME":"SL-3 R\/B","OBJECT_ID":"1977-057B","EPOCH":"2026-03-09T21:55:03.006336","MEAN_MOTION":15.45501116,"ECCENTRICITY":0.00061593,"INCLINATION":97.5777,"RA_OF_ASC_NODE":240.8437,"ARG_OF_PERICENTER":284.2853,"MEAN_ANOMALY":75.7711,"EPHEMERIS_TYPE":0,"CLASSIFICATION_TYPE":"U","NORAD_CAT_ID":10114,"ELEMENT_SET_NO":999,"REV_AT_EPOCH":66836,"BSTAR":0.00032201204,"MEAN_MOTION_DOT":0.00015369,"MEAN_MOTION_DDOT":0}]
